[{"OBJECT_NAME":"YAOGAN-28","OBJECT_ID":"2015-064A","EPOCH":"2026-03-09T23:07:10.370208","MEAN_MOTION":15.26008,"ECCENTRICITY":0.00111911,"INCLINATION":97.2901,"RA_OF_ASC_NODE":209.4389,"ARG_OF_PERICENTER":175.4532,"MEAN_ANOMALY":184.6811,"EPHEMERIS_TYPE":0,"CLASSIFICATION_TYPE":"U","NORAD_CAT_ID":41026,"ELEMENT_SET_NO":999,"REV_AT_EPOCH":57554,"BSTAR":0.00039691695,"MEAN_MOTION_DOT":0.00010159,"MEAN_MOTION_DDOT":0},{"OBJECT_NAME":"STARLINK-35675","OBJECT_ID":"2025-303AB","EPOCH":"2026-03-09T01:25:30.854496","MEAN_MOTION":15.27571478,"ECCENTRICITY":0.00016039,"INCLINATION":42.9996,"RA_OF_ASC_NODE":314.7172,"ARG_OF_PERICENTER":272.1324,"MEAN_ANOMALY":87.9344,"EPHEMERIS_TYPE":0,"CLASSIFICATION_TYPE":"U","NORAD_CAT_ID":67188,"ELEMENT_SET_NO":999,"REV_AT_EPOCH":1263,"BSTAR":0.00098100462,"MEAN_MOTION_DOT":0.00026824,"MEAN_MOTION_DDOT":0}]
